[{"OBJECT_NAME":"HAWK-2B","OBJECT_ID":"2021-006CZ","EPOCH":"2026-03-09T16:13:51.664224","MEAN_MOTION":15.33301353,"ECCENTRICITY":0.00071021,"INCLINATION":97.2334,"RA_OF_ASC_NODE":114.114,"ARG_OF_PERICENTER":185.9063,"MEAN_ANOMALY":174.2098,"EPHEMERIS_TYPE":0,"CLASSIFICATION_TYPE":"U","NORAD_CAT_ID":47508,"ELEMENT_SET_NO":999,"REV_AT_EPOCH":28424,"BSTAR":0.00029650607,"MEAN_MOTION_DOT":9.474e-5,"MEAN_MOTION_DDOT":0},{"OBJECT_NAME":"STARLINK-34611","OBJECT_ID":"2025-157Q","EPOCH":"2026-03-09T23:26:11.575968","MEAN_MOTION":15.30208026,"ECCENTRICITY":0.0001126,"INCLINATION":53.1588,"RA_OF_ASC_NODE":344.6285,"ARG_OF_PERICENTER":128.4729,"MEAN_ANOMALY":231.6373,"EPHEMERIS_TYPE":0,"CLASSIFICATION_TYPE":"U","NORAD_CAT_ID":64918,"ELEMENT_SET_NO":999,"REV_AT_EPOCH":3616,"BSTAR":0.0010912169,"MEAN_MOTION_DOT":0.00032107,"MEAN_MOTION_DDOT":0}]
